ONEWEB-0427             
1 50499U 21132AG  26192.86083617  .00000045  00000+0  80228-4 0  9997
2 50499  87.9196 330.5284 0001885  90.7000 269.4349 13.18686732224866
ONEWEB-0429             
1 50500U 21132AH  26192.84733466 -.00000021  00000+0 -87061-4 0  9990
2 50500  87.9187 330.5538 0001902 100.7341 259.4005 13.18687031224839
ONEWEB-0430             
1 50501U 21132AJ  26192.83553258 -.00000033  00000+0 -11536-3 0  9995
2 50501  87.9195 330.5549 0002202 103.8871 256.2506 13.18687979224873
ONEWEB-0432             
1 50502U 21132AK  26192.81854631 -.00000012  00000+0 -62221-4 0  9998
2 50502  87.9193 330.5443 0002366  99.1827 260.9573 13.18685698224821
ONEWEB-0440             
1 50503U 21132AL  26192.85576936  .00000007  00000+0 -13845-4 0  9993
2 50503  87.9196 330.5487 0001608 105.2677 254.8633 13.18687025224828
ONEWEB-0450             
1 50504U 21132AM  26192.84916580 -.00000012  00000+0 -62712-4 0  9990
2 50504  87.9185 330.5524 0001979 102.5179 257.6175 13.18686760224857
ONEWEB-0410             
1 51622U 22012A   26192.51684895  .00000021  00000+0  20791-4 0  9994
2 51622  87.9152   1.0192 0001989  52.8851 307.2462 13.17649907216908
ONEWEB-0411             
1 51623U 22012B   26192.60046483 -.00000049  00000+0 -17599-3 0  9993
2 51623  87.8827  31.4026 0002194  97.6730 262.4647 13.10377731212484
ONEWEB-0415             
1 51624U 22012C   26192.59706091 -.00000074  00000+0 -24688-3 0  9995
2 51624  87.8824  31.4021 0002151  87.2395 272.8979 13.10378279212483
ONEWEB-0416             
1 51625U 22012D   26192.60895629  .00000467  00000+0  13018-2 0  9992
2 51625  87.8816  31.4161 0002218  84.8571 275.2810 13.10376701212527
ONEWEB-0422             
1 51626U 22012E   26192.83071419  .00000153  00000+0  35984-3 0  9990
2 51626  87.9149   0.9569 0001871 113.1896 246.9433 13.17651316217055
ONEWEB-0423             
1 51627U 22012F   26192.89990328  .00000029  00000+0  40939-4 0  9995
2 51627  87.9140   0.9473 0001805  89.8726 270.2613 13.17647867216953
ONEWEB-0425             
1 51628U 22012G   26192.54278913  .00000731  00000+0  20569-2 0  9992
2 51628  87.8816  31.4133 0001869  73.2798 286.8535 13.10374767212514
ONEWEB-0428             
1 51629U 22012H   26192.59876160 -.00000095  00000+0 -30791-3 0  9990
2 51629  87.8811  31.4077 0001750  84.7720 275.3607 13.10377993212481
ONEWEB-0431             
1 51630U 22012J   26192.56805406 -.00000295  00000+0 -88219-3 0  9994
2 51630  87.8814  31.4077 0002335 102.1304 258.0085 13.10369733212536
ONEWEB-0434             
1 51631U 22012K   26192.54632009  .00000807  00000+0  22759-2 0  9993
2 51631  87.8822  31.4385 0001679  66.5508 293.5795 13.10372972212516
